KUIPER-00016            
1 63732U 25088J   25216.25001157 -.00004522  00000+0 -31649-3 0  9991
2 63732  51.8887 354.5242 0011859  68.9835 228.1313 15.02425922 15107
KUIPER-00018            
1 63733U 25088K   25216.25001157 -.00544173  00000+0 -24711-1 0  9993
2 63733  51.8771 349.0707 0007088  87.4468  90.9775 15.22369139 15186
KUIPER-00019            
1 63734U 25088L   25216.25001157 -.00951780  00000+0 -35999-1 0  9990
2 63734  51.8732 348.2938 0005766  95.2856  92.0453 15.28960032 15192
KUIPER-00020            
1 63735U 25088M   25216.25001157  .00036803  00000+0  18324-2 0  9993
2 63735  51.8832 349.9875 0007321  93.4897 309.5455 15.17221507 15380
KUIPER-00021            
1 63736U 25088N   25216.25001157 -.00330471  00000+0 -18004-1 0  9998
2 63736  51.8773 350.6068 0006066  84.4886  57.5925 15.15495989 15209
KUIPER-00023            
1 63737U 25088P   25216.25001157  .00040847  00000+0  23022-2 0  9999
2 63737  51.8802 351.3762 0010009  92.6389  43.0661 15.12761026 15496
KUIPER-00024            
1 63738U 25088Q   25215.40954390  .00017518  00000+0  45993-3 0  9993
2 63738  51.8725 351.3129 0001050 104.8735 255.2369 15.38710762 15553
KUIPER-00025            
1 63739U 25088R   25216.25001157 -.01609978  00000+0 -77042-1 0  9990
2 63739  51.8786 349.1387 0008518  67.2345  25.4021 15.21739204 15519
